ONEWEB-0678             
1 56714U 23068E   23301.80732032  .00000771  00000+0  20054-2 0  9993
2 56714  87.8967  90.7489 0001285  95.7216 264.4061 13.15800601 23455
ONEWEB-0679             
1 56715U 23068F   23301.87580918  .00003461  00000+0  46761-3 0  9998
2 56715  86.7213  74.2858 0015866  25.6019 334.5984 14.78709547 24684
ONEWEB-0680             
1 56716U 23068G   23299.66667824 -.01118297  00000+0 -81369+0 0  9990
2 56716  87.3597  77.4513 0015025  43.0653 278.6700 13.99882047 24217
ONEWEB-0681             
1 56717U 23068H   23299.66667824 -.00372340  00000+0 -27659+0 0  9993
2 56717  87.3639  77.5723 0015256  41.5056 147.7548 13.97373389  5458
ONEWEB-0682             
1 56718U 23068J   23301.41923306  .00000099  00000+0  18689-3 0  9995
2 56718  88.0994  90.6659 0001655  96.4571 263.6756 13.28745838 22830
ONEWEB-0683             
1 56719U 23068K   23301.78608959  .00000009  00000+0 -88828-5 0  9996
2 56719  88.1018  90.5721 0001582 124.5250 235.6037 13.28500028 23555
ONEWEB-0684             
1 56720U 23068L   23301.78441287  .00000591  00000+0  15428-2 0  9995
2 56720  87.9005  90.8379 0000979 101.7011 258.4229 13.15233923 23417
ONEWEB-0686             
1 56721U 23068M   23301.43110291  .00003365  00000+0  45775-3 0  9997
2 56721  86.7187  74.4421 0015284  29.6775 330.5309 14.78415113 23922
